{"type": "FeatureCollection", "features": [ {"type": "Feature", "properties": {"norad_id": 30035, "name": "FENGYUN 1C DEB", "group": "fengyun-1c-debris", "lat": -3.833125240015322, "lon": -98.98090107038016, "alt_km": 741.1985117500535, "timestamp": "2025-12-11T15:53:39.815739+00:00", "meta": {"OBJECT_NAME": "FENGYUN 1C DEB", "OBJECT_ID": "1999-025NL", "EPOCH": "2025-12-11T06:38:53.844576", "MEAN_MOTION": 14.36973784, "ECCENTRICITY": 0.01156373, "INCLINATION": 99.2707, "RA_OF_ASC_NODE": 259.9773, "ARG_OF_PERICENTER": 66.1547, "MEAN_ANOMALY": 99.4725, "EPHEMERIS_TYPE": 0, "CLASSIFICATION_TYPE": "U", "NORAD_CAT_ID": 30035, "ELEMENT_SET_NO": 999, "REV_AT_EPOCH": 99102, "BSTAR": 0.0001271506, "MEAN_MOTION_DOT": 3.54e-06, "MEAN_MOTION_DDOT": 0}, "tle": {"line1": "1 30035U 99025NL  25345.27701209  .00000354  00000+0  12715-3 0  9993", "line2": "2 30035  99.2707 259.9773 0115637  66.1547  99.4725 14.36973784991020"}}, "geometry": {"type": "Point", "coordinates": [-98.98090107038016, -3.833125240015322]}}, {"type": "Feature", "properties": {"norad_id": 30036, "name": "FENGYUN 1C DEB", "group": "fengyun-1c-debris", "lat": 51.635835455208074, "lon": 2.2208520657623487, "alt_km": 858.6958756275335, "timestamp": "2025-12-11T15:53:39.815749+00:00", "meta": {"OBJECT_NAME": "FENGYUN 1C DEB", "OBJECT_ID": "1999-025NM", "EPOCH": "2025-12-10T13:47:14.539776", "MEAN_MOTION": 14.46168527, "ECCENTRICITY": 0.0189865, "INCLINATION": 98.253, "RA_OF_ASC_NODE": 11.7267, "ARG_OF_PERICENTER": 214.2216, "MEAN_ANOMALY": 299.085, "EPHEMERIS_TYPE": 0, "CLASSIFICATION_TYPE": "U", "NORAD_CAT_ID": 30036, "ELEMENT_SET_NO": 999, "REV_AT_EPOCH": 99145, "BSTAR": 0.0006467, "MEAN_MOTION_DOT": 2.841e-05, "MEAN_MOTION_DDOT": 0}, "tle": {"line1": "1 30036U 99025NM  25344.57447384  .00002841  00000+0  64670-3 0  9997", "line2": "2 30036  98.2530  11.7267 0189865 214.2216 299.0850 14.46168527991455"}}, "geometry": {"type": "Point", "coordinates": [2.2208520657623487, 51.635835455208074]}}, {"type": "Feature", "properties": {"norad_id": 30037, "name": "FENGYUN 1C DEB", "group": "fengyun-1c-debris", "lat": 43.09034447974665, "lon": 149.34051985664817, "alt_km": 746.3581260694746, "timestamp": "2025-12-11T15:53:39.815759+00:00", "meta": {"OBJECT_NAME": "FENGYUN 1C DEB", "OBJECT_ID": "1999-025NN", "EPOCH": "2025-12-09T10:22:55.253280", "MEAN_MOTION": 14.34111274, "ECCENTRICITY": 0.01745574, "INCLINATION": 98.3831, "RA_OF_ASC_NODE": 319.2486, "ARG_OF_PERICENTER": 64.8781, "MEAN_ANOMALY": 84.6299, "EPHEMERIS_TYPE": 0, "CLASSIFICATION_TYPE": "U", "NORAD_CAT_ID": 30037, "ELEMENT_SET_NO": 999, "REV_AT_EPOCH": 98740, "BSTAR": 0.00035366107, "MEAN_MOTION_DOT": 1.128e-05, "MEAN_MOTION_DDOT": 0}, "tle": {"line1": "1 30037U 99025NN  25343.43258395  .00001128  00000+0  35366-3 0  9991", "line2": "2 30037  98.3831 319.2486 0174557  64.8781  84.6299 14.34111274987407"}}, "geometry": {"type": "Point", "coordinates": [149.34051985664817, 43.09034447974665]}}, {"type": "Feature", "properties": {"norad_id": 30038, "name": "FENGYUN 1C DEB", "group": "fengyun-1c-debris", "lat": 32.39200866571599, "lon": 158.67384570714216, "alt_km": 618.057528364694, "timestamp": "2025-12-11T15:53:39.815769+00:00", "meta": {"OBJECT_NAME": "FENGYUN 1C DEB", "OBJECT_ID": "1999-025NP", "EPOCH": "2025-12-11T05:31:34.157280", "MEAN_MOTION": 14.39288768, "ECCENTRICITY": 0.02580174, "INCLINATION": 98.3681, "RA_OF_ASC_NODE": 332.8934, "ARG_OF_PERICENTER": 107.318, "MEAN_ANOMALY": 320.7507, "EPHEMERIS_TYPE": 0, "CLASSIFICATION_TYPE": "U", "NORAD_CAT_ID": 30038, "ELEMENT_SET_NO": 999, "REV_AT_EPOCH": 98869, "BSTAR": 0.0003022091, "MEAN_MOTION_DOT": 1.336e-05, "MEAN_MOTION_DDOT": 0}, "tle": {"line1": "1 30038U 99025NP  25345.23025645  .00001336  00000+0  30221-3 0  9998", "line2": "2 30038  98.3681 332.8934 0258017 107.3180 320.7507 14.39288768988696"}}, "geometry": {"type": "Point", "coordinates": [158.67384570714216, 32.39200866571599]}}, {"type": "Feature", "properties": {"norad_id": 30040, "name": "FENGYUN 1C DEB", "group": "fengyun-1c-debris", "lat": -76.83287099371896, "lon": 40.331623440455644, "alt_km": 756.7350718157822, "timestamp": "2025-12-11T15:53:39.815780+00:00", "meta": {"OBJECT_NAME": "FENGYUN 1C DEB", "OBJECT_ID": "1999-025NR", "EPOCH": "2025-12-10T12:33:56.945664", "MEAN_MOTION": 14.37082211, "ECCENTRICITY": 0.00323067, "INCLINATION": 98.2346, "RA_OF_ASC_NODE": 0.9981, "ARG_OF_PERICENTER": 319.823, "MEAN_ANOMALY": 193.096, "EPHEMERIS_TYPE": 0, "CLASSIFICATION_TYPE": "U", "NORAD_CAT_ID": 30040, "ELEMENT_SET_NO": 999, "REV_AT_EPOCH": 97896, "BSTAR": 0.0025325386, "MEAN_MOTION_DOT": 7.53e-05, "MEAN_MOTION_DDOT": 0}, "tle": {"line1": "1 30040U 99025NR  25344.52357576  .00007530  00000+0  25325-2 0  9993", "line2": "2 30040  98.2346   0.9981 0032306 319.8230 193.0960 14.37082211978964"}}, "geometry": {"type": "Point", "coordinates": [40.331623440455644, -76.83287099371896]}}, {"type": "Feature", "properties": {"norad_id": 30041, "name": "FENGYUN 1C DEB", "group": "fengyun-1c-debris", "lat": -42.959685116662875, "lon": 101.03766488356617, "alt_km": 857.7250874607798, "timestamp": "2025-12-11T15:53:39.815790+00:00", "meta": {"OBJECT_NAME": "FENGYUN 1C DEB", "OBJECT_ID": "1999-025NS", "EPOCH": "2025-12-11T06:09:33.613920", "MEAN_MOTION": 14.13181889, "ECCENTRICITY": 0.00347597, "INCLINATION": 99.4669, "RA_OF_ASC_NODE": 91.6704, "ARG_OF_PERICENTER": 221.2445, "MEAN_ANOMALY": 192.2651, "EPHEMERIS_TYPE": 0, "CLASSIFICATION_TYPE": "U", "NORAD_CAT_ID": 30041, "ELEMENT_SET_NO": 999, "REV_AT_EPOCH": 97266, "BSTAR": 0.00079135857, "MEAN_MOTION_DOT": 1.44e-05, "MEAN_MOTION_DDOT": 0}, "tle": {"line1": "1 30041U 99025NS  25345.25663905  .00001440  00000+0  79136-3 0  9995", "line2": "2 30041  99.4669  91.6704 0034759 221.2445 192.2651 14.13181889972668"}}, "geometry": {"type": "Point", "coordinates": [101.03766488356617, -42.959685116662875]}}, {"type": "Feature", "properties": {"norad_id": 30043, "name": "FENGYUN 1C DEB", "group": "fengyun-1c-debris", "lat": -68.33070253986949, "lon": 106.10299827842381, "alt_km": 1005.8632403765596, "timestamp": "2025-12-11T15:53:39.815801+00:00", "meta": {"OBJECT_NAME": "FENGYUN 1C DEB", "OBJECT_ID": "1999-025NU", "EPOCH": "2025-12-11T06:07:08.294304", "MEAN_MOTION": 14.23555841, "ECCENTRICITY": 0.02837154, "INCLINATION": 98.627, "RA_OF_ASC_NODE": 83.2398, "ARG_OF_PERICENTER": 135.28, "MEAN_ANOMALY": 227.1638, "EPHEMERIS_TYPE": 0, "CLASSIFICATION_TYPE": "U", "NORAD_CAT_ID": 30043, "ELEMENT_SET_NO": 999, "REV_AT_EPOCH": 97324, "BSTAR": 0.0017867714, "MEAN_MOTION_DOT": 6.125e-05, "MEAN_MOTION_DDOT": 0}, "tle": {"line1": "1 30043U 99025NU  25345.25495711  .00006125  00000+0  17868-2 0  9993", "line2": "2 30043  98.6270  83.2398 0283715 135.2800 227.1638 14.23555841973244"}}, "geometry": {"type": "Point", "coordinates": [106.10299827842381, -68.33070253986949]}}, {"type": "Feature", "properties": {"norad_id": 30044, "name": "FENGYUN 1C DEB", "group": "fengyun-1c-debris", "lat": 65.10471490957701, "lon": -112.14543521538806, "alt_km": 730.5236908271891, "timestamp": "2025-12-11T15:53:39.815811+00:00", "meta": {"OBJECT_NAME": "FENGYUN 1C DEB", "OBJECT_ID": "1999-025NV", "EPOCH": "2025-12-11T07:18:31.641696", "MEAN_MOTION": 14.50631701, "ECCENTRICITY": 0.00793208, "INCLINATION": 98.211, "RA_OF_ASC_NODE": 265.6332, "ARG_OF_PERICENTER": 171.6879, "MEAN_ANOMALY": 188.5651, "EPHEMERIS_TYPE": 0, "CLASSIFICATION_TYPE": "U", "NORAD_CAT_ID": 30044, "ELEMENT_SET_NO": 999, "REV_AT_EPOCH": 98018, "BSTAR": 0.0035427469, "MEAN_MOTION_DOT": 0.0001446, "MEAN_MOTION_DDOT": 0}, "tle": {"line1": "1 30044U 99025NV  25345.30453289  .00014460  00000+0  35427-2 0  9996", "line2": "2 30044  98.2110 265.6332 0079320 171.6879 188.5651 14.50631701980189"}}, "geometry": {"type": "Point", "coordinates": [-112.14543521538806, 65.10471490957701]}}, {"type": "Feature", "properties": {"norad_id": 30045, "name": "FENGYUN 1C DEB", "group": "fengyun-1c-debris", "lat": -18.054414195162597, "lon": 24.207944798224442, "alt_km": 872.5551111290424, "timestamp": "2025-12-11T15:53:39.815822+00:00", "meta": {"OBJECT_NAME": "FENGYUN 1C DEB", "OBJECT_ID": "1999-025NW", "EPOCH": "2025-12-11T01:04:05.890368", "MEAN_MOTION": 14.21577796, "ECCENTRICITY": 0.00949528, "INCLINATION": 99.1788, "RA_OF_ASC_NODE": 20.5446, "ARG_OF_PERICENTER": 118.1385, "MEAN_ANOMALY": 304.7421, "EPHEMERIS_TYPE": 0, "CLASSIFICATION_TYPE": "U", "NORAD_CAT_ID": 30045, "ELEMENT_SET_NO": 999, "REV_AT_EPOCH": 96664, "BSTAR": 0.0028777955, "MEAN_MOTION_DOT": 6.562e-05, "MEAN_MOTION_DDOT": 0}, "tle": {"line1": "1 30045U 99025NW  25345.04451262  .00006562  00000+0  28778-2 0  9992", "line2": "2 30045  99.1788  20.5446 0094952 118.1385 304.7421 14.21577796966644"}}, "geometry": {"type": "Point", "coordinates": [24.207944798224442, -18.054414195162597]}}, {"type": "Feature", "properties": {"norad_id": 30047, "name": "FENGYUN 1C DEB", "group": "fengyun-1c-debris", "lat": 26.423515045428758, "lon": 137.58583916564407, "alt_km": 867.4010855725846, "timestamp": "2025-12-11T15:53:39.815832+00:00", "meta": {"OBJECT_NAME": "FENGYUN 1C DEB", "OBJECT_ID": "1999-025NY", "EPOCH": "2025-12-10T08:54:30.701088", "MEAN_MOTION": 13.94348696, "ECCENTRICITY": 0.01256287, "INCLINATION": 99.9192, "RA_OF_ASC_NODE": 141.1885, "ARG_OF_PERICENTER": 329.1224, "MEAN_ANOMALY": 59.2335, "EPHEMERIS_TYPE": 0, "CLASSIFICATION_TYPE": "U", "NORAD_CAT_ID": 30047, "ELEMENT_SET_NO": 999, "REV_AT_EPOCH": 95883, "BSTAR": 0.00097454556, "MEAN_MOTION_DOT": 1.333e-05, "MEAN_MOTION_DDOT": 0}, "tle": {"line1": "1 30047U 99025NY  25344.37118867  .00001333  00000+0  97455-3 0  9990", "line2": "2 30047  99.9192 141.1885 0125628 329.1224  59.2335 13.94348696958833"}}, "geometry": {"type": "Point", "coordinates": [137.58583916564407, 26.423515045428758]}}]}